ES'HAIL 2               
1 43700U 18090A   23345.14202786  .00000175  00000+0  00000+0 0  9990
2 43700   0.0193  57.8474 0001902 242.6222 216.1104  1.00274990 18462
FOX-1CLIFF (AO-95)      
1 43770U 18099N   23345.41915354  .00003607  00000+0  27646-3 0  9990
2 43770  97.5777  42.5168 0012074 285.9238  74.0656 15.02400144274194
ITASAT                  
1 43786U 18099AE  23345.15612455  .00002684  00000+0  21156-3 0  9998
2 43786  97.5459  42.8752 0016634 263.8490  96.0839 15.01497587274183
JY1SAT (JO-97)          
1 43803U 18099AX  23345.11648588  .00004719  00000+0  34974-3 0  9993
2 43803  97.5504  43.2800 0010194 224.3891 135.6518 15.03541415274259
UWE-4                   
1 43880U 18111E   23345.51861940  .00004585  00000+0  32482-3 0  9999
2 43880  97.6241 248.1294 0015907 295.6163  64.3419 15.05205850271017
JAISAT-1                
1 44419U 19038F   23345.57248175  .00030838  00000+0  68369-3 0  9995
2 44419  97.6831 334.8595 0013687  40.0717 320.1537 15.43601784245763
DUCHIFAT-3              
1 44854U 19089C   23345.52229757  .00007226  00000+0  43750-3 0  9996
2 44854  36.9593 108.5359 0007812 342.6693  17.3784 15.10231476219680
TIANYAN 01              
1 44881U 19093C   23345.50531138  .00000817  00000+0  10676-3 0  9998
2 44881  97.8485  60.8596 0013771 215.1301 144.9006 14.83064610215076
RS-44 & BREEZE-KM R/B   
1 44909U 19096E   23345.61709251  .00000035  00000+0  87419-4 0  9999
2 44909  82.5221 230.0395 0218147 131.9403 230.0522 12.79724342184855
BY70-2                  
1 45857U 20042B   23345.58959119  .00021252  00000+0  16593-2 0  9998
2 45857  97.9219  67.1952 0006568 134.7635 225.4124 15.01130961186048
SALSAT                  
1 46495U 20068K   23345.59838140  .00003715  00000+0  23237-3 0  9994
2 46495  97.7932 295.9441 0013045 232.9734 127.0302 15.10005985175826
RADFXSAT-2 (AO-109)     
1 47311U 21002C   23345.58634431  .00042457  00000+0  62192-3 0  9996
2 47311  60.6753  89.8757 0025246  40.9231 319.3760 15.54926008161701
UVSQ-SAT                
1 47438U 21006AB  23345.46433855  .00014254  00000+0  46054-3 0  9997
2 47438  97.3600  40.6368 0008327 165.0033 195.1458 15.32172635159719
LEDSAT                  
1 49069U 21073D   23345.14536775  .00007424  00000+0  36290-3 0  9995
2 49069  97.4645  53.2992 0021055 223.9821 135.9738 15.18326920127716
XW-3 (CAS-9)            
1 50466U 21131B   23345.54002023  .00000492  00000+0  17311-3 0  9992
2 50466  98.5425  66.4714 0003646 344.2107  15.8966 14.39236132102860
TEVEL-3                 
1 50988U 22002E   23345.46132101  .00022033  00000+0  63267-3 0  9997
2 50988  97.4121  52.1752 0005392 334.5368  25.5609 15.35845551105868
TEVEL-8                 
1 50989U 22002F   23345.48874184  .00022334  00000+0  64304-3 0  9991
2 50989  97.4137  52.2807 0005296 332.5531  27.5432 15.35759689105863
TEVEL-5                 
1 50998U 22002Q   23345.48023341  .00024707  00000+0  67726-3 0  9999
2 50998  97.4116  52.8485 0006152 324.1403  35.9427 15.37268683105919
TEVEL-6                 
1 50999U 22002R   23345.47946791  .00024814  00000+0  68056-3 0  9998
2 50999  97.4114  52.8369 0006149 323.7682  36.3145 15.37251428105910
TEVEL-1                 
1 51013U 22002AF  23345.47782108  .00022605  00000+0  65052-3 0  9995
2 51013  97.4113  52.1002 0005208 333.1438  26.9535 15.35772842105861
TEVEL-7                 
1 51062U 22002CG  23345.48631914  .00022545  00000+0  64813-3 0  9995
2 51062  97.4132  52.2483 0005304 332.5049  27.5913 15.35805747105866
TEVEL-4                 
1 51063U 22002CH  23345.43619533  .00020522  00000+0  59259-3 0  9995
2 51063  97.4131  52.1557 0005260 332.6535  27.4431 15.35685269105857
TEVEL-2                 
1 51069U 22002CP  23345.46208700  .00021681  00000+0  62231-3 0  9995
2 51069  97.4118  52.1433 0005350 334.3211  25.7767 15.35861774105862
GREENCUBE               
1 53106U 22080B   23332.09968023 -.00000003  00000+0  00000+0 0  9999
2 53106  70.1436 262.7414 0008227 151.4978 208.6132  6.42557248 32288
CYCLOPS (RS29S)         
1 53373U 22096D   23345.52170814  .00067599  00000+0  80405-3 0  9990
2 53373  97.3992 255.9159 0004264  78.5433 281.6302 15.60912023 75119
MONITOR-1 (RS32S)       
1 53374U 22096E   23345.54881142  .00058893  00000+0  78399-3 0  9992
2 53374  97.3938 255.2909 0003451  88.1502 272.0148 15.57967400 75080
KUZBASS-300 (RS34S)     
1 53375U 22096F   23345.56137565  .00034178  00000+0  60967-3 0  9990
2 53375  97.4014 254.0463 0002533  86.2091 273.9450 15.50004659 74997
UTMN (RS23S)            
1 53376U 22096G   23345.60517846  .00037845  00000+0  63241-3 0  9992
2 53376  97.3994 254.4223 0002789  74.6148 285.5412 15.51829591 75022
MIET-AIS (RS28S)        
1 53377U 22096H   23345.48830674  .00029583  00000+0  56103-3 0  9995
2 53377  97.4028 253.7190 0002498  82.7947 277.3587 15.48279123 74961
KAI-1 (RS26S)           
1 53378U 22096J   23345.58696593  .00023524  00000+0  50402-3 0  9992
2 53378  97.4054 253.0352 0002203  83.1576 276.9923 15.44763567 74922
ISOI (RS19S)            
1 53381U 22096M   23345.58132225  .00030823  00000+0  55920-3 0  9993
2 53381  97.4023 254.3218 0004621  99.3175 260.8599 15.49534854 75019
CUBESX-HSE-2 (RS21S)    
1 53383U 22096P   23345.56365420  .00036090  00000+0  60655-3 0  9991
2 53383  97.3996 254.6497 0005467 100.2917 259.8952 15.51665721 75030
SIREN (RS30S)           
1 53384U 22096Q   23345.56051815  .00026733  00000+0  52637-3 0  9996
2 53384  97.4032 253.7914 0004567 102.7069 257.4691 15.47205333 74972
GEOSCAN-EDELVEIS (RS20S)
1 53385U 22096R   23345.56432607  .00085977  00000+0  87184-3 0  9999
2 53385  97.3975 257.0288 0006932  89.3462 270.8592 15.64935121 75226
VIZARD (RS33S)          
1 53386U 22096S   23345.36654001  .01345544  11995-2  15084-2 0  9999
2 53386  97.3882 260.3628 0008584 129.1221 231.0827 16.09622686 75410
CAS-5A (FO-118)         
1 54684U 22167C   23345.56065911  .00009756  00000+0  45571-3 0  9996
2 54684  97.5824 122.8694 0012739  83.4422 276.8262 15.19950058 55568
STRATOSAT-TK 1 (RS52S)  
1 57167U 23091B   23345.59523875  .00005629  00000+0  38236-3 0  9998
2 57167  97.6426  34.7750 0018231  47.8678 312.4095 15.06643773 25118
UMKA 1 (RS40S)          
1 57172U 23091G   23345.52776640  .00002470  00000+0  17760-3 0  9997
2 57172  97.6425  34.5565 0018944  48.0517 312.2320 15.05044142 25091
CUBESX-HSE 3 (RS42S)    
1 57178U 23091N   23345.58757909  .00003197  00000+0  22614-3 0  9997
2 57178  97.6457  34.7126 0019518  42.3836 317.8894 15.05441217 25109
MONITOR-4 (RS57S)       
1 57182U 23091S   23345.53385356  .00003419  00000+0  24281-3 0  9999
2 57182  97.6453  34.6054 0019939  43.7881 316.4922 15.05232462 25096
MONITOR-2 (RS39S)       
1 57184U 23091U   23345.59574398  .00002310  00000+0  16456-3 0  9997
2 57184  97.6456  34.8390 0015858  38.7161 321.5199 15.05505642 25116
SVYATOBOR 1 (RS60S)     
1 57187U 23091X   23345.55233414  .00003902  00000+0  26998-3 0  9997
2 57187  97.6458  34.8979 0015246  36.0204 324.2047 15.06190480 25117
VIZARD-METEO (RS38S)    
1 57189U 23091Z   23345.43402351  .00004579  00000+0  31033-3 0  9991
2 57189  97.6444  34.8843 0014115  34.5678 325.6464 15.06881951 25103
NANOZOND 1 (RS49S)      
1 57190U 23091AA  23345.44430374  .00004892  00000+0  32269-3 0  9990
2 57190  97.6419  34.9658 0012826  40.7457 319.4728 15.07865318 25118
POLYTECH-UNIVERSE 3 (R*)
1 57191U 23091AB  23345.58514583  .00001891  00000+0  13576-3 0  9997
2 57191  97.6415  34.6305 0021740  52.9484 307.3726 15.05336929 25103
UTMN 2 (RS27S)          
1 57203U 23091AP  23345.58161912  .00003229  00000+0  22144-3 0  9993
2 57203  97.6442  34.9962 0014536  34.8900 325.3277 15.06659217 25128
ARCCUBE 1 (RS25S)       
1 57205U 23091AR  23345.56817518  .00006831  00000+0  44527-3 0  9994
2 57205  97.6399  35.0722 0013129  41.4041 318.8180 15.08156402 25135
KUZGTU 1 (RS47S)        
1 57217U 23091AV  23345.51936004  .00003078  00000+0  21811-3 0  9995
2 57217  97.6431  34.5958 0019423  43.7566 316.5196 15.05404570 25096
